start=new Date('2023-02-12T00:00:00.000Z').valueOf();
sats=[{"CLASSIFICATION_TYPE":"U","TLE_LINE1":"1 54775U 22175T   23042.79691305  .00000596  00000-0  55545-4 0  9994","NORAD_CAT_ID":"54775","ECCENTRICITY":"0.00013310","SEMIMAJOR_AXIS":"6917.890","EPHEMERIS_TYPE":"0","RCS_SIZE":"LARGE","MEAN_ANOMALY":"251.2366","CENTER_NAME":"EARTH","ELEMENT_SET_NO":"999","REF_FRAME":"TEME","REV_AT_EPOCH":"1055","INCLINATION":"53.2165","BSTAR":"0.00005554500000","OBJECT_TYPE":"PAYLOAD","FILE":"3786577","APOAPSIS":"540.676","TLE_LINE2":"2 54775  53.2165  40.3225 0001331 108.8770 251.2366 15.08836732 10556","OBJECT_ID":"2022-175T","COUNTRY_CODE":"US","RA_OF_ASC_NODE":"40.3225","ARG_OF_PERICENTER":"108.8770","MEAN_MOTION_DDOT":"0.0000000000000","TIME_SYSTEM":"UTC","LAUNCH_DATE":"2022-12-17","MEAN_MOTION_DOT":"0.00000596","SITE":"AFETR","GP_ID":"225187249","DECAY_DATE":null,"PERIAPSIS":"538.835","MEAN_ELEMENT_THEORY":"SGP4","MEAN_MOTION":"15.08836732","OBJECT_NAME":"STARLINK-5465","PERIOD":"95.438","EPOCH":"2023-02-11T19:07:33.287520"},{"OBJECT_ID":"2022-175U","COUNTRY_CODE":"US","TLE_LINE2":"2 54776  53.2177  40.5799 0001231  92.5653 267.5480 15.08833332 10545","APOAPSIS":"540.617","RA_OF_ASC_NODE":"40.5799","ARG_OF_PERICENTER":"92.5653","MEAN_MOTION_DDOT":"0.0000000000000","TIME_SYSTEM":"UTC","MEAN_MOTION_DOT":"-0.00001054","LAUNCH_DATE":"2022-12-17","SITE":"AFETR","GP_ID":"225188000","DECAY_DATE":null,"PERIAPSIS":"538.914","MEAN_ELEMENT_THEORY":"SGP4","MEAN_MOTION":"15.08833332","PERIOD":"95.438","OBJECT_NAME":"STARLINK-5470","EPOCH":"2023-02-11T17:22:56.663616","CLASSIFICATION_TYPE":"U","TLE_LINE1":"1 54776U 22175U   23042.72426694 -.00001054  00000-0 -48142-4 0  9992","NORAD_CAT_ID":"54776","ECCENTRICITY":"0.00012310","SEMIMAJOR_AXIS":"6917.901","RCS_SIZE":"LARGE","EPHEMERIS_TYPE":"0","MEAN_ANOMALY":"267.5480","ELEMENT_SET_NO":"999","CENTER_NAME":"EARTH","REV_AT_EPOCH":"1054","REF_FRAME":"TEME","INCLINATION":"53.2177","BSTAR":"-0.00004814200000","OBJECT_TYPE":"PAYLOAD","FILE":"3786577"},{"PERIAPSIS":"538.968","SITE":"AFETR","GP_ID":"225186248","DECAY_DATE":null,"MEAN_MOTION_DDOT":"0.0000000000000","TIME_SYSTEM":"UTC","LAUNCH_DATE":"2022-12-17","MEAN_MOTION_DOT":"0.00000419","OBJECT_ID":"2022-175V","COUNTRY_CODE":"US","TLE_LINE2":"2 54777  53.2173  40.5965 0001123 103.6622 256.4495 15.08840241 10547","APOAPSIS":"540.522","RA_OF_ASC_NODE":"40.5965","ARG_OF_PERICENTER":"103.6622","EPOCH":"2023-02-11T17:26:51.514368","PERIOD":"95.438","OBJECT_NAME":"STARLINK-5468","MEAN_ELEMENT_THEORY":"SGP4","MEAN_MOTION":"15.08840241","ELEMENT_SET_NO":"999","CENTER_NAME":"EARTH","RCS_SIZE":"LARGE","EPHEMERIS_TYPE":"0","MEAN_ANOMALY":"256.4495","ECCENTRICITY":"0.00011230","SEMIMAJOR_AXIS":"6917.880","NORAD_CAT_ID":"54777","TLE_LINE1":"1 54777U 22175V   23042.72698512  .00000419  00000-0  44388-4 0  9993","CLASSIFICATION_TYPE":"U","OBJECT_TYPE":"PAYLOAD","FILE":"3786577","INCLINATION":"53.2173","BSTAR":"0.00004438800000","REV_AT_EPOCH":"1054","REF_FRAME":"TEME"},{"PERIOD":"92.689","OBJECT_NAME":"STARLINK-5450","MEAN_MOTION":"15.53587147","MEAN_ELEMENT_THEORY":"SGP4","EPOCH":"2023-02-11T22:00:00.999936","LAUNCH_DATE":"2022-12-17","MEAN_MOTION_DOT":"-0.00902279","MEAN_MOTION_DDOT":"0.0000000000000","TIME_SYSTEM":"UTC","RA_OF_ASC_NODE":"29.2172","ARG_OF_PERICENTER":"100.8723","COUNTRY_CODE":"US","OBJECT_ID":"2022-175W","APOAPSIS":"407.147","TLE_LINE2":"2 54778  53.2153  29.2172 0001301 100.8723 102.1852 15.53587147  1300","PERIAPSIS":"405.382","GP_ID":"225186498","DECAY_DATE":null,"SITE":"AFETR","REV_AT_EPOCH":"130","REF_FRAME":"TEME","FILE":"3786577","OBJECT_TYPE":"PAYLOAD","BSTAR":"-0.01532000000000","INCLINATION":"53.2153","SEMIMAJOR_AXIS":"6784.400","ECCENTRICITY":"0.00013010","NORAD_CAT_ID":"54778","TLE_LINE1":"1 54778U 22175W   23042.91667824 -.00902279  00000-0 -15320-1 0  9995","CLASSIFICATION_TYPE":"U","ELEMENT_SET_NO":"999","CENTER_NAME":"EARTH","MEAN_ANOMALY":"102.1852","RCS_SIZE":"LARGE","EPHEMERIS_TYPE":"0"},{"MEAN_ELEMENT_THEORY":"SGP4","MEAN_MOTION":"15.53572281","PERIOD":"92.690","OBJECT_NAME":"STARLINK-5447","EPOCH":"2023-02-11T22:00:00.999936","OBJECT_ID":"2022-175X","COUNTRY_CODE":"US","APOAPSIS":"407.174","TLE_LINE2":"2 54779  53.2151  29.2177 0001276  96.2803 105.6071 15.53572281  1306","RA_OF_ASC_NODE":"29.2177","ARG_OF_PERICENTER":"96.2803","MEAN_MOTION_DDOT":"0.0000000000000","TIME_SYSTEM":"UTC","MEAN_MOTION_DOT":"-0.00903701","LAUNCH_DATE":"2022-12-17","SITE":"AFETR","GP_ID":"225187750","DECAY_DATE":null,"PERIAPSIS":"405.442","REV_AT_EPOCH":"130","REF_FRAME":"TEME","INCLINATION":"53.2151","BSTAR":"-0.01535500000000","OBJECT_TYPE":"PAYLOAD","FILE":"3786577","NORAD_CAT_ID":"54779","TLE_LINE1":"1 54779U 22175X   23042.91667824 -.00903701  00000-0 -15355-1 0  9995","CLASSIFICATION_TYPE":"U","ECCENTRICITY":"0.00012760","SEMIMAJOR_AXIS":"6784.443","RCS_SIZE":"LARGE","EPHEMERIS_TYPE":"0","MEAN_ANOMALY":"105.6071","ELEMENT_SET_NO":"999","CENTER_NAME":"EARTH"},{"GP_ID":"225187500","DECAY_DATE":null,"SITE":"AFETR","PERIAPSIS":"405.171","ARG_OF_PERICENTER":"98.9241","RA_OF_ASC_NODE":"29.1964","TLE_LINE2":"2 54780  53.2153  29.1964 0001444  98.9241 114.0514 15.53626473  1304","APOAPSIS":"407.130","COUNTRY_CODE":"US","OBJECT_ID":"2022-175Y","MEAN_MOTION_DOT":"-0.00895494","LAUNCH_DATE":"2022-12-17","TIME_SYSTEM":"UTC","MEAN_MOTION_DDOT":"0.0000000000000","EPOCH":"2023-02-11T22:00:00.999936","MEAN_MOTION":"15.53626473","MEAN_ELEMENT_THEORY":"SGP4","OBJECT_NAME":"STARLINK-5449","PERIOD":"92.686","MEAN_ANOMALY":"114.0514","EPHEMERIS_TYPE":"0","RCS_SIZE":"LARGE","CENTER_NAME":"EARTH","ELEMENT_SET_NO":"999","TLE_LINE1":"1 54780U 22175Y   23042.91667824 -.00895494  00000-0 -15171-1 0  9992","CLASSIFICATION_TYPE":"U","NORAD_CAT_ID":"54780","SEMIMAJOR_AXIS":"6784.285","ECCENTRICITY":"0.00014440","BSTAR":"-0.01517100000000","INCLINATION":"53.2153","FILE":"3786577","OBJECT_TYPE":"PAYLOAD","REF_FRAME":"TEME","REV_AT_EPOCH":"130"},{"SITE":"AFETR","DECAY_DATE":null,"GP_ID":"225152041","PERIAPSIS":"405.264","TLE_LINE2":"2 54781  53.2147  29.2144 0001433  92.9179 111.3097 15.53596846  8551","APOAPSIS":"407.209","OBJECT_ID":"2022-175Z","COUNTRY_CODE":"US","RA_OF_ASC_NODE":"29.2144","ARG_OF_PERICENTER":"92.9179","MEAN_MOTION_DDOT":"0.0000000000000","TIME_SYSTEM":"UTC","LAUNCH_DATE":"2022-12-17","MEAN_MOTION_DOT":"-0.00894070","EPOCH":"2023-02-11T22:00:00.999936","MEAN_ELEMENT_THEORY":"SGP4","MEAN_MOTION":"15.53596846","OBJECT_NAME":"STARLINK-5443","PERIOD":"92.688","EPHEMERIS_TYPE":"0","RCS_SIZE":"LARGE","MEAN_ANOMALY":"111.3097","CENTER_NAME":"EARTH","ELEMENT_SET_NO":"999","NORAD_CAT_ID":"54781","TLE_LINE1":"1 54781U 22175Z   23042.91667824 -.00894070  00000-0 -15161-1 0  9991","CLASSIFICATION_TYPE":"U","ECCENTRICITY":"0.00014330","SEMIMAJOR_AXIS":"6784.371","INCLINATION":"53.2147","BSTAR":"-0.01516100000000","OBJECT_TYPE":"PAYLOAD","FILE":"3786178","REF_FRAME":"TEME","REV_AT_EPOCH":"855"},{"REV_AT_EPOCH":"1069","REF_FRAME":"TEME","BSTAR":"0.00003852500000","INCLINATION":"53.2174","FILE":"3786577","OBJECT_TYPE":"PAYLOAD","TLE_LINE1":"1 54782U 22175AA  23042.66109631  .00004798  00000-0  38525-4 0  9991","NORAD_CAT_ID":"54782","CLASSIFICATION_TYPE":"U","SEMIMAJOR_AXIS":"6727.797","ECCENTRICITY":"0.00011490","MEAN_ANOMALY":"271.9453","RCS_SIZE":"LARGE","EPHEMERIS_TYPE":"0","ELEMENT_SET_NO":"999","CENTER_NAME":"EARTH","MEAN_MOTION":"15.73234375","MEAN_ELEMENT_THEORY":"SGP4","PERIOD":"91.531","OBJECT_NAME":"STARLINK-5437","EPOCH":"2023-02-11T15:51:58.721184","RA_OF_ASC_NODE":"29.4232","ARG_OF_PERICENTER":"88.1699","OBJECT_ID":"2022-175AA","COUNTRY_CODE":"US","APOAPSIS":"350.435","TLE_LINE2":"2 54782  53.2174  29.4232 0001149  88.1699 271.9453 15.73234375 10695","MEAN_MOTION_DOT":"0.00004798","LAUNCH_DATE":"2022-12-17","MEAN_MOTION_DDOT":"0.0000000000000","TIME_SYSTEM":"UTC","GP_ID":"225186999","DECAY_DATE":null,"SITE":"AFETR","PERIAPSIS":"348.889"},{"OBJECT_TYPE":"PAYLOAD","FILE":"3786178","INCLINATION":"53.2146","BSTAR":"-0.01516800000000","REF_FRAME":"TEME","REV_AT_EPOCH":"855","CENTER_NAME":"EARTH","ELEMENT_SET_NO":"999","EPHEMERIS_TYPE":"0","RCS_SIZE":"LARGE","MEAN_ANOMALY":"108.9583","ECCENTRICITY":"0.00014550","SEMIMAJOR_AXIS":"6784.323","TLE_LINE1":"1 54783U 22175AB  23042.91667824 -.00894947  00000-0 -15168-1 0  9993","CLASSIFICATION_TYPE":"U","NORAD_CAT_ID":"54783","EPOCH":"2023-02-11T22:00:00.999936","OBJECT_NAME":"STARLINK-5439","PERIOD":"92.687","MEAN_ELEMENT_THEORY":"SGP4","MEAN_MOTION":"15.53613447","PERIAPSIS":"405.201","SITE":"AFETR","GP_ID":"225152035","DECAY_DATE":null,"MEAN_MOTION_DDOT":"0.0000000000000","TIME_SYSTEM":"UTC","LAUNCH_DATE":"2022-12-17","MEAN_MOTION_DOT":"-0.00894947","APOAPSIS":"407.175","TLE_LINE2":"2 54783  53.2146  29.2115 0001455  96.4374 108.9583 15.53613447  8559","OBJECT_ID":"2022-175AB","COUNTRY_CODE":"US","RA_OF_ASC_NODE":"29.2115","ARG_OF_PERICENTER":"96.4374"},{"REF_FRAME":"TEME","REV_AT_EPOCH":"842","INCLINATION":"53.2140","BSTAR":"0.00017332000000","OBJECT_TYPE":"PAYLOAD","FILE":"3786555","NORAD_CAT_ID":"54784","TLE_LINE1":"1 54784U 22175AC  23042.98826503  .00002472  00000-0  17332-3 0  9991","CLASSIFICATION_TYPE":"U","ECCENTRICITY":"0.00013550","SEMIMAJOR_AXIS":"6917.878","EPHEMERIS_TYPE":"0","RCS_SIZE":"LARGE","MEAN_ANOMALY":"285.7199","CENTER_NAME":"EARTH","ELEMENT_SET_NO":"999","MEAN_ELEMENT_THEORY":"SGP4","MEAN_MOTION":"15.08840625","OBJECT_NAME":"STARLINK-5442","PERIOD":"95.438","EPOCH":"2023-02-11T23:43:06.098592","APOAPSIS":"540.681","TLE_LINE2":"2 54784  53.2140  39.3896 0001355  74.3943 285.7199 15.08840625  8421","COUNTRY_CODE":"US","OBJECT_ID":"2022-175AC","RA_OF_ASC_NODE":"39.3896","ARG_OF_PERICENTER":"74.3943","MEAN_MOTION_DDOT":"0.0000000000000","TIME_SYSTEM":"UTC","LAUNCH_DATE":"2022-12-17","MEAN_MOTION_DOT":"0.00002472","SITE":"AFETR","GP_ID":"225161355","DECAY_DATE":null,"PERIAPSIS":"538.806"}];
